[{"OBJECT_NAME":"STARLINK-3679","OBJECT_ID":"2022-025T","EPOCH":"2026-03-09T07:06:27.034272","MEAN_MOTION":15.06397139,"ECCENTRICITY":0.00012849,"INCLINATION":53.0552,"RA_OF_ASC_NODE":32.5908,"ARG_OF_PERICENTER":96.4999,"MEAN_ANOMALY":263.6136,"EPHEMERIS_TYPE":0,"CLASSIFICATION_TYPE":"U","NORAD_CAT_ID":51973,"ELEMENT_SET_NO":999,"REV_AT_EPOCH":22086,"BSTAR":1.45703e-5,"MEAN_MOTION_DOT":-6.4e-7,"MEAN_MOTION_DDOT":0},{"OBJECT_NAME":"THE ARAB SATELLITE 813","OBJECT_ID":"2025-292B","EPOCH":"2026-03-09T21:37:26.354208","MEAN_MOTION":15.05594469,"ECCENTRICITY":0.00142186,"INCLINATION":97.6379,"RA_OF_ASC_NODE":145.6178,"ARG_OF_PERICENTER":341.4344,"MEAN_ANOMALY":18.6363,"EPHEMERIS_TYPE":0,"CLASSIFICATION_TYPE":"U","NORAD_CAT_ID":66994,"ELEMENT_SET_NO":999,"REV_AT_EPOCH":1350,"BSTAR":0.00043840303,"MEAN_MOTION_DOT":6.274e-5,"MEAN_MOTION_DDOT":0}]
